GLOBALSTAR M094         
1 39074U 13005C   26005.17531914 -.00000067  00000+0  20582-3 0  9999
2 39074  51.9972 287.1250 0000827  42.0360 318.0570 12.62265696597881
GLOBALSTAR M096         
1 39075U 13005D   26005.58423254 -.00000097  00000+0  38828-4 0  9998
2 39075  52.0100 334.5497 0000492  25.1696 334.9195 12.62269691596854
GLOBALSTAR M078         
1 39076U 13005E   26005.55818291 -.00000038  00000+0  36463-3 0  9992
2 39076  51.9882  58.8650 0000520 244.1063 115.9750 12.62271754595474
GLOBALSTAR M095         
1 39077U 13005F   26005.50533735 -.00000075  00000+0  15876-3 0  9991
2 39077  52.0098  56.3993 0000042  15.5618 344.5251 12.62267633595325
GLOBALSTAR M087         
1 52888U 22064A   26005.51845889 -.00000105  00000+0 -52702-5 0  9994
2 52888  51.9970 197.6905 0000989  73.2594 286.8381 12.62262334170596
